[{"OBJECT_NAME":"FALCONSAT-10","OBJECT_ID":"2023-174AM","EPOCH":"2026-03-09T16:51:34.085376","MEAN_MOTION":15.26670596,"ECCENTRICITY":0.00089318,"INCLINATION":97.3865,"RA_OF_ASC_NODE":145.7938,"ARG_OF_PERICENTER":169.5942,"MEAN_ANOMALY":190.5483,"EPHEMERIS_TYPE":0,"CLASSIFICATION_TYPE":"U","NORAD_CAT_ID":58291,"ELEMENT_SET_NO":999,"REV_AT_EPOCH":12958,"BSTAR":0.00025968794,"MEAN_MOTION_DOT":6.748e-5,"MEAN_MOTION_DDOT":0},{"OBJECT_NAME":"STARLINK-31557","OBJECT_ID":"2024-060K","EPOCH":"2026-03-09T12:26:48.613344","MEAN_MOTION":15.27572095,"ECCENTRICITY":0.00014026,"INCLINATION":43.0036,"RA_OF_ASC_NODE":256.7313,"ARG_OF_PERICENTER":260.4906,"MEAN_ANOMALY":99.5788,"EPHEMERIS_TYPE":0,"CLASSIFICATION_TYPE":"U","NORAD_CAT_ID":59357,"ELEMENT_SET_NO":999,"REV_AT_EPOCH":11008,"BSTAR":1.1490748e-5,"MEAN_MOTION_DOT":5.4e-7,"MEAN_MOTION_DDOT":0}]
