FALCONSAT-10            
1 58291U 23174AM  26068.70247784  .00006748  00000+0  25969-3 0  9991
2 58291  97.3865 145.7938 0008932 169.5942 190.5483 15.26670596129582
STARLINK-31557          
1 59357U 24060K   26068.51861821  .00000054  00000+0  11491-4 0  9993
2 59357  43.0036 256.7313 0001402 260.4906  99.5788 15.27572095110087
